1 26871U 01031A   12082.36973333 -.00000300  00000-0  10000-3 0  5117
2 26871 002.0646 073.9227 0003530 320.4428 219.2234 01.00265395 39127